RADUGA 32               
1 23448U 94087A   12013.58152197 -.00000141  00000-0  10000-3 0  4631
2 23448  12.1460  41.5266 0003631 122.8197 237.2599  1.00268001 80119
RADUGA-1 4              
1 25642U 99010A   12011.56647257 -.00000301  00000-0  10000-3 0  5541
2 25642  11.0193  55.8378 0001670 110.4118 249.6444  1.00213719 47134
RADUGA-1 5              
1 26477U 00049A   12013.98552157 -.00000156  00000-0  10000-3 0  2864
2 26477   8.6456  55.4835 0002913 314.7000 177.7107  1.00340045 41661
RADUGA-1 7              
1 28194U 04010A   12011.78027632  .00000156  00000-0  10000-3 0  5463
2 28194   6.0607  69.4013 0001993 105.9405 254.0483  1.00198485 28556
RADUGA-1M 1             
1 32373U 07058A   12014.78846256 -.00000035  00000-0  10000-3 0  1931
2 32373   0.0104 268.2631 0002906 359.7733 199.4737  1.00272854 15912
